{
  "type": "FeatureCollection",
  "features": [
    {
      "type": "Feature",
      "properties": {
        "norad_id": 31878,
        "name": "FENGYUN 1C DEB",
        "group": "fengyun-1c-debris",
        "lat": 75.91885695519234,
        "lon": -139.41081569424432,
        "alt_km": 663.4167327373088,
        "timestamp": "2025-12-05T20:43:02.339395+00:00",
        "meta_object_name": "FENGYUN 1C DEB",
        "meta_object_id": "1999-025CKD",
        "meta_epoch": "2025-12-03T00:27:41.548032",
        "meta_mean_motion": 14.85464766,
        "meta_eccentricity": 0.00842743,
        "meta_inclination": 99.4399,
        "meta_ra_of_asc_node": 258.7733,
        "meta_arg_of_pericenter": 269.6043,
        "meta_mean_anomaly": 89.551,
        "meta_ephemeris_type": 0,
        "meta_classification_type": "U",
        "meta_norad_cat_id": 31878,
        "meta_element_set_no": 999,
        "meta_rev_at_epoch": 97949,
        "meta_bstar": 0.0019397439,
        "meta_mean_motion_dot": 0.000178,
        "meta_mean_motion_ddot": 0,
        "tle_line1": "1 31878U 99025CKD 25337.01923088  .00017800  00000+0  19397-2 0  9999",
        "tle_line2": "2 31878  99.4399 258.7733 0084274 269.6043  89.5510 14.85464766979499"
      },
      "geometry": {
        "type": "Point",
        "coordinates": [
          -139.41081569424432,
          75.91885695519234
        ]
      }
    },
    {
      "type": "Feature",
      "properties": {
        "norad_id": 31879,
        "name": "FENGYUN 1C DEB",
        "group": "fengyun-1c-debris",
        "lat": -26.03832331885515,
        "lon": 32.57799968296544,
        "alt_km": 883.1732452588021,
        "timestamp": "2025-12-05T20:43:02.339405+00:00",
        "meta_object_name": "FENGYUN 1C DEB",
        "meta_object_id": "1999-025CKE",
        "meta_epoch": "2025-12-03T21:10:46.899264",
        "meta_mean_motion": 14.4286854,
        "meta_eccentricity": 0.0210167,
        "meta_inclination": 99.7081,
        "meta_ra_of_asc_node": 215.1207,
        "meta_arg_of_pericenter": 62.3501,
        "meta_mean_anomaly": 299.8845,
        "meta_ephemeris_type": 0,
        "meta_classification_type": "U",
        "meta_norad_cat_id": 31879,
        "meta_element_set_no": 999,
        "meta_rev_at_epoch": 63082,
        "meta_bstar": 0.00054525,
        "meta_mean_motion_dot": 2.313e-05,
        "meta_mean_motion_ddot": 0,
        "tle_line1": "1 31879U 99025CKE 25337.88248726  .00002313  00000+0  54525-3 0  9990",
        "tle_line2": "2 31879  99.7081 215.1207 0210167  62.3501 299.8845 14.42868540630822"
      },
      "geometry": {
        "type": "Point",
        "coordinates": [
          32.57799968296544,
          -26.03832331885515
        ]
      }
    },
    {
      "type": "Feature",
      "properties": {
        "norad_id": 31880,
        "name": "FENGYUN 1C DEB",
        "group": "fengyun-1c-debris",
        "lat": -0.6505051271859663,
        "lon": 142.25978347034075,
        "alt_km": 1026.2747943424247,
        "timestamp": "2025-12-05T20:43:02.339415+00:00",
        "meta_object_name": "FENGYUN 1C DEB",
        "meta_object_id": "1999-025CKF",
        "meta_epoch": "2025-11-25T04:55:41.522880",
        "meta_mean_motion": 13.89366235,
        "meta_eccentricity": 0.01285165,
        "meta_inclination": 100.0297,
        "meta_ra_of_asc_node": 130.6763,
        "meta_arg_of_pericenter": 197.7169,
        "meta_mean_anomaly": 161.9484,
        "meta_ephemeris_type": 0,
        "meta_classification_type": "U",
        "meta_norad_cat_id": 31880,
        "meta_element_set_no": 999,
        "meta_rev_at_epoch": 62736,
        "meta_bstar": 0.0005535194,
        "meta_mean_motion_dot": 6.7e-06,
        "meta_mean_motion_ddot": 0,
        "tle_line1": "1 31880U 99025CKF 25329.20534170  .00000670  00000+0  55352-3 0  9993",
        "tle_line2": "2 31880 100.0297 130.6763 0128516 197.7169 161.9484 13.89366235627363"
      },
      "geometry": {
        "type": "Point",
        "coordinates": [
          142.25978347034075,
          -0.6505051271859663
        ]
      }
    },
    {
      "type": "Feature",
      "properties": {
        "norad_id": 31882,
        "name": "FENGYUN 1C DEB",
        "group": "fengyun-1c-debris",
        "lat": 72.73868140780601,
        "lon": -127.92424030525511,
        "alt_km": 867.5122420969328,
        "timestamp": "2025-12-05T20:43:02.339425+00:00",
        "meta_object_name": "FENGYUN 1C DEB",
        "meta_object_id": "1999-025CKH",
        "meta_epoch": "2025-12-04T12:04:11.131104",
        "meta_mean_motion": 14.12940251,
        "meta_eccentricity": 0.0035445,
        "meta_inclination": 98.9162,
        "meta_ra_of_asc_node": 261.0675,
        "meta_arg_of_pericenter": 248.9848,
        "meta_mean_anomaly": 110.7531,
        "meta_ephemeris_type": 0,
        "meta_classification_type": "U",
        "meta_norad_cat_id": 31882,
        "meta_element_set_no": 999,
        "meta_rev_at_epoch": 58520,
        "meta_bstar": 0.0011941,
        "meta_mean_motion_dot": 2.193e-05,
        "meta_mean_motion_ddot": 0,
        "tle_line1": "1 31882U 99025CKH 25338.50290661  .00002193  00000+0  11941-2 0  9999",
        "tle_line2": "2 31882  98.9162 261.0675 0035445 248.9848 110.7531 14.12940251585207"
      },
      "geometry": {
        "type": "Point",
        "coordinates": [
          -127.92424030525511,
          72.73868140780601
        ]
      }
    },
    {
      "type": "Feature",
      "properties": {
        "norad_id": 31883,
        "name": "FENGYUN 1C DEB",
        "group": "fengyun-1c-debris",
        "lat": -43.748416248191326,
        "lon": 67.03605722876533,
        "alt_km": 736.1899342440411,
        "timestamp": "2025-12-05T20:43:02.339435+00:00",
        "meta_object_name": "FENGYUN 1C DEB",
        "meta_object_id": "1999-025CKJ",
        "meta_epoch": "2025-12-05T04:59:00.096000",
        "meta_mean_motion": 14.67640175,
        "meta_eccentricity": 0.01251946,
        "meta_inclination": 99.0277,
        "meta_ra_of_asc_node": 255.0676,
        "meta_arg_of_pericenter": 92.1479,
        "meta_mean_anomaly": 269.4064,
        "meta_ephemeris_type": 0,
        "meta_classification_type": "U",
        "meta_norad_cat_id": 31883,
        "meta_element_set_no": 999,
        "meta_rev_at_epoch": 97868,
        "meta_bstar": 0.0013366873,
        "meta_mean_motion_dot": 8.498e-05,
        "meta_mean_motion_ddot": 0,
        "tle_line1": "1 31883U 99025CKJ 25339.20764000  .00008498  00000+0  13367-2 0  9999",
        "tle_line2": "2 31883  99.0277 255.0676 0125194  92.1479 269.4064 14.67640175978684"
      },
      "geometry": {
        "type": "Point",
        "coordinates": [
          67.03605722876533,
          -43.748416248191326
        ]
      }
    },
    {
      "type": "Feature",
      "properties": {
        "norad_id": 31887,
        "name": "FENGYUN 1C DEB",
        "group": "fengyun-1c-debris",
        "lat": -67.26633569981314,
        "lon": -173.18249953217773,
        "alt_km": 720.4101618227387,
        "timestamp": "2025-12-05T20:43:02.339445+00:00",
        "meta_object_name": "FENGYUN 1C DEB",
        "meta_object_id": "1999-025CKN",
        "meta_epoch": "2025-12-01T21:40:30.420768",
        "meta_mean_motion": 14.57640474,
        "meta_eccentricity": 0.00244837,
        "meta_inclination": 99.536,
        "meta_ra_of_asc_node": 25.9385,
        "meta_arg_of_pericenter": 37.5978,
        "meta_mean_anomaly": 322.6923,
        "meta_ephemeris_type": 0,
        "meta_classification_type": "U",
        "meta_norad_cat_id": 31887,
        "meta_element_set_no": 999,
        "meta_rev_at_epoch": 96450,
        "meta_bstar": 0.0013108732,
        "meta_mean_motion_dot": 5.945e-05,
        "meta_mean_motion_ddot": 0,
        "tle_line1": "1 31887U 99025CKN 25335.90312987  .00005945  00000+0  13109-2 0  9997",
        "tle_line2": "2 31887  99.5360  25.9385 0024483  37.5978 322.6923 14.57640474964506"
      },
      "geometry": {
        "type": "Point",
        "coordinates": [
          -173.18249953217773,
          -67.26633569981314
        ]
      }
    },
    {
      "type": "Feature",
      "properties": {
        "norad_id": 31888,
        "name": "FENGYUN 1C DEB",
        "group": "fengyun-1c-debris",
        "lat": 28.022246665857846,
        "lon": 90.78751051963516,
        "alt_km": 777.9550423945884,
        "timestamp": "2025-12-05T20:43:02.339455+00:00",
        "meta_object_name": "FENGYUN 1C DEB",
        "meta_object_id": "1999-025CKP",
        "meta_epoch": "2025-11-28T00:25:18.962112",
        "meta_mean_motion": 14.3367913,
        "meta_eccentricity": 0.00183068,
        "meta_inclination": 99.1503,
        "meta_ra_of_asc_node": 257.5749,
        "meta_arg_of_pericenter": 264.7226,
        "meta_mean_anomaly": 95.1868,
        "meta_ephemeris_type": 0,
        "meta_classification_type": "U",
        "meta_norad_cat_id": 31888,
        "meta_element_set_no": 999,
        "meta_rev_at_epoch": 95426,
        "meta_bstar": 0.002133667,
        "meta_mean_motion_dot": 5.886e-05,
        "meta_mean_motion_ddot": 0,
        "tle_line1": "1 31888U 99025CKP 25332.01758058  .00005886  00000+0  21337-2 0  9996",
        "tle_line2": "2 31888  99.1503 257.5749 0018306 264.7226  95.1868 14.33679130954263"
      },
      "geometry": {
        "type": "Point",
        "coordinates": [
          90.78751051963516,
          28.022246665857846
        ]
      }
    }
  ]
}